0 DELTA 1 DEB
1 21328U 75052AW  13283.13496241  .00042134  00000-0  51831-2 0  9761
2 21328 099.6966 339.7586 0040980 351.5975 061.0704 14.82231870161574
0 DELTA 1 DEB
1 21328U 75052AW  13283.66513719  .00097053  00000-0  11988-1 0  9789
2 21328 099.6979 340.3982 0040572 350.2873 009.8044 14.82264023161658
0 DELTA 1 DEB
1 21328U 75052AW  13283.81233459  .00046091  00000-0  56617-2 0  9770
2 21328 099.6970 340.5781 0040935 349.2060 075.8976 14.82263448161676
0 DELTA 1 DEB
1 21328U 75052AW  13284.14833174  .00038882  00000-0  47801-2 0  9782
2 21328 099.6971 340.9848 0040972 348.1131 068.9000 14.82283280161726
0 DELTA 1 DEB
1 21328U 75052AW  13285.83552095  .00031658  00000-0  38894-2 0  9808
2 21328 099.6975 343.0267 0040960 342.5752 072.7271 14.82372738161970
0 DELTA 1 DEB
1 21328U 75052AW  13286.84761810  .00033526  00000-0  41117-2 0  9816
2 21328 099.6977 344.2517 0040988 339.3508 074.0553 14.82427187162121
0 DELTA 1 DEB
1 21328U 75052AW  13288.12558736  .00061813  00000-0  75230-2 0  9824
2 21328 099.6977 345.7988 0041105 335.0878 054.7940 14.82533626162316
0 DELTA 1 DEB
1 21328U 75052AW  13288.80691921  .00047502  00000-0  57863-2 0  9835
2 21328 099.6973 346.6236 0041077 332.8719 091.3603 14.82597289162414
0 DELTA 1 DEB
1 21328U 75052AW  13289.76128058  .00051848  00000-0  63004-2 0  9840
2 21328 099.6970 347.7790 0041230 329.4178 145.7738 14.82661926162558
0 DELTA 1 DEB
1 21328U 75052AW  13290.43882309  .00051837  00000-0  62923-2 0  9850
2 21328 099.6965 348.5994 0041075 327.5434 162.0828 14.82711779162653
0 DELTA 1 DEB
1 21328U 75052AW  13291.45035829  .00044946  00000-0  54508-2 0  9864
2 21328 099.6970 349.8250 0041276 323.9990 162.0364 14.82793559162806
0 DELTA 1 DEB
1 21328U 75052AW  13292.46244133  .00040794  00000-0  49426-2 0  9877
2 21328 099.6966 351.0509 0041237 320.9948 164.6328 14.82864832162957
0 DELTA 1 DEB
1 21328U 75052AW  13293.47255638  .00042911  00000-0  51876-2 0  9887
2 21328 099.6963 352.2745 0041398 317.6879 157.2954 14.82935546163105
0 DELTA 1 DEB
1 21328U 75052AW  13294.48497943  .00046006  00000-0  55502-2 0  9896
2 21328 099.6958 353.5008 0041476 314.4349 162.4692 14.82996223163251
0 DELTA 1 DEB
1 21328U 75052AW  13296.16215889  .00052010  00000-0  62472-2 0  9908
2 21328 099.6955 355.5325 0041583 309.1009 117.1871 14.83131120163507
